#dP2022 10 18 12  0  0.00000000      96 __u+U ITR00 EXT  IAC
## 2232 216000.00000000   900.00000000 59870 0.5000000000000
+  118   C06C07C08C09C10C11C12C13C14C16C19C20C21C22C23C24C25
+        C26C27C28C29C30C32C33C34C35C36C37C38C39C40C41C42C43
+        C44C45C46E01E02E03E04E05E07E08E09E10E11E12E13E14E15
+        E18E19E21E24E25E26E27E30E31E33E34E36G01G02G03G04G05
+        G06G07G08G09G10G11G12G13G14G15G16G17G18G19G20G21G22
+        G23G24G25G26G27G28G29G30G31G32J02J03J04R01R02R03R04
+        R05R07R08R09R11R12R13R14R15R17R18R19R20R21R22R24  0
++        12 10 10  9  9  9  8 10 10 11  7  7  7  8  8  7  8
++         9  7  8  9  8  8  7  8  8  8  9  9  9  9  8  9  9
++         8  9  8  7  7  7  6  7  8  9  7  7  8  8  7  9  7
++         9  9  7  7  7  6  7  8  8  7  7  7  7  8  8  7  7
++         7  9  7  8  7  7  7  8  9  8  8  8  7  8  8  7  7
++         8  7  8  8  7  7  7  7  8  8 11  9  9 10  8  8  7
++         8  8  8  9  9  9  8  8  8  8  8  7  9  8  9  7  0
%c M  cc GPS ccc cccc cccc cccc cccc ccccc ccccc ccccc ccccc
%c cc cc ccc ccc cccc cccc cccc cccc ccccc ccccc ccccc ccccc
%f  0.0000000  0.000000000  0.00000000000  0.000000000000000
%f  0.0000000  0.000000000  0.00000000000  0.000000000000000
%i    0    0    0    0      0      0      0      0         0
%i    0    0    0    0      0      0      0      0         0
/* IAC                                ULTRA-RAPID PREDICTION
/* S/V CLOCKS ARE ALIGNED TO GNSS TIME                      
/* G:C1WC2W R:C1PC2P E:C1XC5X C:C2IC6I J:C1CC2S             
/* PCV:IGS14_2218 OL/AL:FES2004  NONE     YN ORB:CoN CLK:CoN
*  2022 10 19  9 45  0.00000000
PC06 -11922.228473  23478.656191  32894.397740    890.688509
PC07 -14554.018490  39515.173634  -3417.217130    754.499761
PC08    478.265163  31490.413814 -27938.202087    497.197708
PC09   -336.457574  24674.569996  34568.729990   -830.599341
PC10  -8847.776946  40267.274985  -9724.341973     81.460942
PC11  24736.155863  -8435.522248   9800.271248   -342.688273
PC12  26651.471437   2689.739531  -7740.196281   -476.259791
PC13   7302.670177  35605.551425 -20997.670271    110.858326
PC14  17464.368634 -17182.870233  13322.148637    582.349830
PC16 -16962.682535  22001.695842  31821.922719    127.521495
PC19 -13824.248187  23794.778365  -4662.600567   -910.744682
PC20 -18240.175388   9719.763733 -18758.431482    860.595381
PC21  11933.261962  11314.109860  22554.232001   -635.717611
PC22  -1283.755458  24789.803178  12760.650825   -842.312441
PC23  -7894.856305 -24344.673124 -11126.879473   -629.643747
PC24  19802.237501   3481.149247 -19346.387240   -684.960471
PC25   7275.519391 -16025.618702 -21667.088456     11.887731
PC26  20104.703826  18078.675665  -6839.342860    -23.641331
PC27 -22008.528765  -8293.969219  14997.326059     38.188935
PC28  -4415.786520 -15459.948880  22815.262165     26.010200
PC29 -16664.640584  14351.173533 -17183.835214     28.818072
PC30 -27550.526521   4318.930250   -784.089231      0.572777
PC32 -11978.957618 -11306.936969 -22519.272861   -753.126039
PC33  13745.125081 -23803.703516   4780.433835   -932.309977
PC34  27394.881226  -5017.182872   1888.606415     20.042448
PC35   3272.837400  15668.074154 -22865.873054     48.716508
PC36  -8180.183781  15342.417489  21851.105099   -760.125145
PC37 -19274.773786 -19403.290611   5632.648444   -556.868661
PC38  -6785.595509  27460.273720 -31190.040351     32.105027
PC39 -21401.745653  21598.212975  29144.753573     -0.689715
PC40 -21472.344538  36414.410902   -624.639422     -6.358826
PC41   1614.365660 -25001.755760 -12250.603528   -188.063972
PC42  18208.566680  -8431.569782  19421.088187   -502.037665
PC43  17413.351622 -14128.633247  16614.558127     20.361351
PC44  22178.373924   7717.271201 -15105.542366     86.311148
PC45   8206.374183  24340.039686  10878.226538    -11.685715
PC46 -19146.686168  -1804.320504  20239.030827     -7.310905
PE01 -16565.586914   2059.461088  24451.184968   -549.335365
PE02  16533.414408  -2304.491370 -24439.558208    331.658276
PE03  25931.653083  -9564.904169  10571.422412   -611.271550
PE04 -19644.492909  20801.216869   7585.039965  -1139.896517
PE05  17113.269982   7561.769859  22932.600487   -133.074032
PE07   1501.301812 -20007.728770 -21763.283129   -714.482730
PE08  19577.873244 -20832.506309  -7663.862312   -617.899158
PE09  -1726.464887  19981.250826  21768.844708   -698.553631
PE10  -1923.449369  16421.625974 -24555.815636   -484.731898
PE11   9701.587601  18918.626483 -20603.739543   1721.794947
PE12 -12375.284488  11678.613211 -24220.474308   -230.362751
PE13  -8872.879459 -18765.715389  21108.164087    430.673802
PE14 -23666.762879  19438.234731  -7515.808621     32.005863
PE15  12570.612206 -11490.253818  24215.012506    713.082180
PE18  22264.843389 -10916.250353   -286.374309   -843.979492
PE19 -25612.937251   7401.331227 -12857.045303  -4226.170382
PE21 -14503.299678 -18002.658645  18494.406364   -764.314811
PE24   3243.788149  29403.001353   -595.768850   -899.536995
PE25  14387.989611  18281.365489 -18285.834915   -590.562887
PE26 -25280.029357 -14652.976085   4781.563675  -1744.677231
PE27  -4013.740479 -29292.102193   1563.662287   -418.944421
PE30   9321.201596 -22613.790031 -16684.202310   -928.476232
PE31  -8755.461635  23216.985202  16148.862066   -506.099079
PE33 -26469.517627  -2531.262686 -13004.152938   -454.844400
PE34  26399.256949   2341.079652  13158.657123    -10.226470
PE36  24901.269757  14966.406709  -5653.754300   -448.106586
PG01  22304.896259  14613.069710  -2387.862278    265.150114
PG02 -22124.813577 -13866.699488   5021.153080   -641.723355
PG03  11827.697836  16523.836161  17038.227121   -365.978930
PG04  17440.688525   5678.213529  19248.500160   -101.128764
PG05  -6877.753240 -24452.057320  -7714.802922   -100.967061
PG06   8558.400658 -11951.324722  22186.288445    495.435813
PG07  23768.135335   4116.008849 -11227.172497    297.171908
PG08   8502.603424  12626.436271 -21806.795333    -89.575985
PG09  23350.271802  -4985.867892  11600.655191   -281.119858
PG10 -11515.453418  16023.556843 -17472.057223     -8.149159
PG11  -3248.629043 -17888.713370  19378.204981    -27.686098
PG12 -10543.814306 -17618.671798  16638.800863   -294.022933
PG13    894.924713 -16196.481376 -21168.190177    408.826783
PG14  13290.986677 -13889.505655 -18270.303845    -93.462098
PG15 -10439.895698 -12229.147159 -21587.511497    -19.654454
PG16      6.520329  26194.458911  -2725.871605   -526.397323
PG17  22900.348359 -13429.061238   2032.293766    670.142522
PG18 -22872.219916  -2750.509434 -13346.419766      9.352822
PG19  17192.021612 -16421.110414  11336.236815    225.815467
PG20    -43.287282 -25916.956188   6351.323413    477.154544
PG21  18903.546368  16062.927235  -9845.466833    157.757183
PG22 -14091.636692  17839.956707  14007.765020    348.472204
PG23 -14614.964683   4788.456205 -21648.898226     -1.066816
PG24 -21177.899994 -15057.194754  -6811.211577     94.012542
PG25 -14971.863767  -5665.593570  20943.294327    383.925260
PG26  -4376.797222  24561.030701   8530.449429    232.992795
PG27  -4008.915955  17862.888186 -19312.455752    195.390168
PG28   9448.152502 -21997.612003 -11260.654631    327.029194
PG29 -23203.982177   2022.316244  12797.973559   -560.789919
PG30  17485.572160  -6136.567091 -19024.516178   -537.193361
PG31  -8132.096964  12929.033831  21581.954447   -197.303635
PG32 -20674.601085  16024.479240   4095.733597   -268.152224
PJ02 -26767.939784  26122.509564  24393.951298     -7.602123
PJ03 -32014.063189  16520.782155 -17274.692269     -3.132595
PJ04 -22209.393358  33172.040193  -8515.696750    111.951496
PR01  14824.100624 -20566.130408   2783.912249     16.493758
PR02   4836.293035 -19755.623198 -15405.283413    -23.042991
PR03  -8088.157778  -7466.131070 -22976.095295     65.749706
PR04 -16083.624573   8798.843251 -17707.031286    161.731887
PR05 -15432.017359  20110.092079  -2702.357231    101.490925
PR07   8670.637718   6679.692410  23070.588663     42.826178
PR08  16184.646888  -8931.954436  17642.992741    -67.691584
PR09   7701.999849  23161.596849   7560.463258     82.864831
PR11  13443.137779   4323.551884 -21233.179327     24.132245
PR12   4090.919715 -14191.904282 -20773.356542     22.162829
PR13  -6707.384069 -22885.278760  -9066.442656    -27.953548
PR14 -14535.025886 -18514.464825   9824.295089     24.207561
PR15 -13189.794685  -3354.502058  21596.031978     93.139045
PR17 -20481.777360  -7622.876435  13208.160464    570.439469
PR18 -25282.507680   -803.448296  -3101.564104     47.824077
PR19 -18193.722354   5508.010887 -17013.659975   -207.839144
PR20   2780.381190  10597.237037 -23027.318592    -80.484686
PR21  21411.163927   7152.262779 -11839.390389   -342.771278
PR22  25182.919638   1333.024400   3888.875795     14.578786
PR24  -3767.371985 -11005.592651  22723.403552    121.246398
EOF
